[{"OBJECT_NAME":"ONEWEB-0334","OBJECT_ID":"2021-083Q","EPOCH":"2025-08-31T05:18:39.522528","MEAN_MOTION":13.20770305,"ECCENTRICITY":0.00013301,"INCLINATION":87.9285,"RA_OF_ASC_NODE":332.2638,"ARG_OF_PERICENTER":66.5459,"MEAN_ANOMALY":293.5814,"EPHEMERIS_TYPE":0,"CLASSIFICATION_TYPE":"U","NORAD_CAT_ID":49200,"ELEMENT_SET_NO":999,"REV_AT_EPOCH":19851,"BSTAR":0.00011708657,"MEAN_MOTION_DOT":6.1e-7,"MEAN_MOTION_DDOT":0},{"OBJECT_NAME":"ONEWEB-0335","OBJECT_ID":"2021-083R","EPOCH":"2025-08-31T03:02:52.200384","MEAN_MOTION":13.13470157,"ECCENTRICITY":0.00019097,"INCLINATION":87.9004,"RA_OF_ASC_NODE":17.8752,"ARG_OF_PERICENTER":99.1041,"MEAN_ANOMALY":261.0304,"EPHEMERIS_TYPE":0,"CLASSIFICATION_TYPE":"U","NORAD_CAT_ID":49201,"ELEMENT_SET_NO":999,"REV_AT_EPOCH":19284,"BSTAR":0.00061838051,"MEAN_MOTION_DOT":2.39e-6,"MEAN_MOTION_DDOT":0},{"OBJECT_NAME":"ONEWEB-0336","OBJECT_ID":"2021-083S","EPOCH":"2025-08-31T02:21:25.090848","MEAN_MOTION":13.13470401,"ECCENTRICITY":0.00018309,"INCLINATION":87.9004,"RA_OF_ASC_NODE":17.8746,"ARG_OF_PERICENTER":94.8298,"MEAN_ANOMALY":265.304,"EPHEMERIS_TYPE":0,"CLASSIFICATION_TYPE":"U","NORAD_CAT_ID":49202,"ELEMENT_SET_NO":999,"REV_AT_EPOCH":19283,"BSTAR":-0.00061379794,"MEAN_MOTION_DOT":-2.11e-6,"MEAN_MOTION_DDOT":0},{"OBJECT_NAME":"ONEWEB-0337","OBJECT_ID":"2021-083T","EPOCH":"2025-08-30T21:06:43.970112","MEAN_MOTION":13.1347127,"ECCENTRICITY":0.00018047,"INCLINATION":87.9014,"RA_OF_ASC_NODE":17.9205,"ARG_OF_PERICENTER":104.9613,"MEAN_ANOMALY":255.1716,"EPHEMERIS_TYPE":0,"CLASSIFICATION_TYPE":"U","NORAD_CAT_ID":49203,"ELEMENT_SET_NO":999,"REV_AT_EPOCH":19280,"BSTAR":-0.00050747092,"MEAN_MOTION_DOT":-1.73e-6,"MEAN_MOTION_DDOT":0},{"OBJECT_NAME":"ONEWEB-0338","OBJECT_ID":"2021-083U","EPOCH":"2025-08-31T04:42:18.315648","MEAN_MOTION":13.20773641,"ECCENTRICITY":0.00016469,"INCLINATION":87.9298,"RA_OF_ASC_NODE":332.2661,"ARG_OF_PERICENTER":93.2818,"MEAN_ANOMALY":266.8503,"EPHEMERIS_TYPE":0,"CLASSIFICATION_TYPE":"U","NORAD_CAT_ID":49204,"ELEMENT_SET_NO":999,"REV_AT_EPOCH":19853,"BSTAR":0.00029991633,"MEAN_MOTION_DOT":1.35e-6,"MEAN_MOTION_DDOT":0},{"OBJECT_NAME":"ONEWEB-0339","OBJECT_ID":"2021-083V","EPOCH":"2025-08-31T02:48:14.495616","MEAN_MOTION":13.13463509,"ECCENTRICITY":0.00016494,"INCLINATION":87.9012,"RA_OF_ASC_NODE":17.8583,"ARG_OF_PERICENTER":102.1716,"MEAN_ANOMALY":257.9598,"EPHEMERIS_TYPE":0,"CLASSIFICATION_TYPE":"U","NORAD_CAT_ID":49205,"ELEMENT_SET_NO":999,"REV_AT_EPOCH":19281,"BSTAR":0.0045476839,"MEAN_MOTION_DOT":1.674e-5,"MEAN_MOTION_DDOT":0},{"OBJECT_NAME":"ONEWEB-0340","OBJECT_ID":"2021-083W","EPOCH":"2025-08-31T03:13:09.346944","MEAN_MOTION":13.18686996,"ECCENTRICITY":0.00018259,"INCLINATION":87.9164,"RA_OF_ASC_NODE":33.0495,"ARG_OF_PERICENTER":95.9313,"MEAN_ANOMALY":264.2028,"EPHEMERIS_TYPE":0,"CLASSIFICATION_TYPE":"U","NORAD_CAT_ID":49206,"ELEMENT_SET_NO":999,"REV_AT_EPOCH":19174,"BSTAR":0.00015445575,"MEAN_MOTION_DOT":7.4e-7,"MEAN_MOTION_DDOT":0},{"OBJECT_NAME":"ONEWEB-0341","OBJECT_ID":"2021-083X","EPOCH":"2025-08-30T23:44:08.077632","MEAN_MOTION":13.1868573,"ECCENTRICITY":0.00016308,"INCLINATION":87.9168,"RA_OF_ASC_NODE":33.0906,"ARG_OF_PERICENTER":113.6545,"MEAN_ANOMALY":246.4759,"EPHEMERIS_TYPE":0,"CLASSIFICATION_TYPE":"U","NORAD_CAT_ID":49207,"ELEMENT_SET_NO":999,"REV_AT_EPOCH":19174,"BSTAR":0.00015817743,"MEAN_MOTION_DOT":7.5e-7,"MEAN_MOTION_DDOT":0},{"OBJECT_NAME":"ONEWEB-0342","OBJECT_ID":"2021-083Y","EPOCH":"2025-08-31T04:51:22.889664","MEAN_MOTION":13.2077014,"ECCENTRICITY":0.00017909,"INCLINATION":87.9285,"RA_OF_ASC_NODE":332.2357,"ARG_OF_PERICENTER":97.1565,"MEAN_ANOMALY":262.9772,"EPHEMERIS_TYPE":0,"CLASSIFICATION_TYPE":"U","NORAD_CAT_ID":49208,"ELEMENT_SET_NO":999,"REV_AT_EPOCH":19850,"BSTAR":0.00027681753,"MEAN_MOTION_DOT":1.26e-6,"MEAN_MOTION_DDOT":0},{"OBJECT_NAME":"ONEWEB-0343","OBJECT_ID":"2021-083Z","EPOCH":"2025-08-31T03:16:43.630176","MEAN_MOTION":13.18685577,"ECCENTRICITY":0.00012989,"INCLINATION":87.9165,"RA_OF_ASC_NODE":33.0471,"ARG_OF_PERICENTER":108.9067,"MEAN_ANOMALY":251.2206,"EPHEMERIS_TYPE":0,"CLASSIFICATION_TYPE":"U","NORAD_CAT_ID":49209,"ELEMENT_SET_NO":999,"REV_AT_EPOCH":19181,"BSTAR":3.2758907e-5,"MEAN_MOTION_DOT":2.6e-7,"MEAN_MOTION_DDOT":0},{"OBJECT_NAME":"ONEWEB-0344","OBJECT_ID":"2021-083AA","EPOCH":"2025-08-31T02:40:54.767136","MEAN_MOTION":13.13470025,"ECCENTRICITY":0.00017399,"INCLINATION":87.9005,"RA_OF_ASC_NODE":17.8992,"ARG_OF_PERICENTER":112.1304,"MEAN_ANOMALY":248.001,"EPHEMERIS_TYPE":0,"CLASSIFICATION_TYPE":"U","NORAD_CAT_ID":49210,"ELEMENT_SET_NO":999,"REV_AT_EPOCH":19281,"BSTAR":-0.00024657395,"MEAN_MOTION_DOT":-7.7e-7,"MEAN_MOTION_DDOT":0},{"OBJECT_NAME":"ONEWEB-0345","OBJECT_ID":"2021-083AB","EPOCH":"2025-08-31T02:28:42.617856","MEAN_MOTION":13.13494161,"ECCENTRICITY":0.00021404,"INCLINATION":87.8974,"RA_OF_ASC_NODE":17.8536,"ARG_OF_PERICENTER":104.8907,"MEAN_ANOMALY":255.246,"EPHEMERIS_TYPE":0,"CLASSIFICATION_TYPE":"U","NORAD_CAT_ID":49211,"ELEMENT_SET_NO":999,"REV_AT_EPOCH":19282,"BSTAR":0.0041641188,"MEAN_MOTION_DOT":1.534e-5,"MEAN_MOTION_DDOT":0},{"OBJECT_NAME":"ONEWEB-0346","OBJECT_ID":"2021-083AC","EPOCH":"2025-08-30T22:02:00.584448","MEAN_MOTION":13.18684924,"ECCENTRICITY":0.00023858,"INCLINATION":87.9168,"RA_OF_ASC_NODE":33.1132,"ARG_OF_PERICENTER":96.0527,"MEAN_ANOMALY":264.0877,"EPHEMERIS_TYPE":0,"CLASSIFICATION_TYPE":"U","NORAD_CAT_ID":49212,"ELEMENT_SET_NO":999,"REV_AT_EPOCH":19172,"BSTAR":-2.5162755e-5,"MEAN_MOTION_DOT":3.0e-8,"MEAN_MOTION_DDOT":0},{"OBJECT_NAME":"ONEWEB-0348","OBJECT_ID":"2021-083AD","EPOCH":"2025-08-31T04:37:45.513696","MEAN_MOTION":13.20770514,"ECCENTRICITY":0.00023255,"INCLINATION":87.9284,"RA_OF_ASC_NODE":332.2494,"ARG_OF_PERICENTER":112.0211,"MEAN_ANOMALY":248.117,"EPHEMERIS_TYPE":0,"CLASSIFICATION_TYPE":"U","NORAD_CAT_ID":49213,"ELEMENT_SET_NO":999,"REV_AT_EPOCH":19853,"BSTAR":0.00020152922,"MEAN_MOTION_DOT":9.5e-7,"MEAN_MOTION_DDOT":0},{"OBJECT_NAME":"ONEWEB-0350","OBJECT_ID":"2021-083AE","EPOCH":"2025-08-31T02:42:08.160480","MEAN_MOTION":13.13470946,"ECCENTRICITY":0.00017672,"INCLINATION":87.9017,"RA_OF_ASC_NODE":17.8437,"ARG_OF_PERICENTER":108.8383,"MEAN_ANOMALY":251.2938,"EPHEMERIS_TYPE":0,"CLASSIFICATION_TYPE":"U","NORAD_CAT_ID":49214,"ELEMENT_SET_NO":999,"REV_AT_EPOCH":19285,"BSTAR":-7.6038407e-5,"MEAN_MOTION_DOT":-1.5e-7,"MEAN_MOTION_DDOT":0},{"OBJECT_NAME":"ONEWEB-0351","OBJECT_ID":"2021-083AF","EPOCH":"2025-08-31T04:28:28.156800","MEAN_MOTION":13.20771539,"ECCENTRICITY":9.926e-5,"INCLINATION":87.9299,"RA_OF_ASC_NODE":332.236,"ARG_OF_PERICENTER":98.3616,"MEAN_ANOMALY":261.763,"EPHEMERIS_TYPE":0,"CLASSIFICATION_TYPE":"U","NORAD_CAT_ID":49215,"ELEMENT_SET_NO":999,"REV_AT_EPOCH":19849,"BSTAR":0.00019904795,"MEAN_MOTION_DOT":9.4e-7,"MEAN_MOTION_DDOT":0}]
