ONEWEB-0334             
1 49200U 21083Q   25243.22129077  .00000061  00000+0  11709-3 0  9992
2 49200  87.9285 332.2638 0001330  66.5459 293.5814 13.20770305198519
ONEWEB-0335             
1 49201U 21083R   25243.12699306  .00000239  00000+0  61838-3 0  9994
2 49201  87.9004  17.8752 0001909  99.1041 261.0304 13.13470157192841
ONEWEB-0336             
1 49202U 21083S   25243.09820707 -.00000211  00000+0 -61380-3 0  9996
2 49202  87.9004  17.8746 0001830  94.8298 265.3040 13.13470401192839
ONEWEB-0337             
1 49203U 21083T   25242.87967558 -.00000173  00000+0 -50747-3 0  9990
2 49203  87.9014  17.9205 0001804 104.9613 255.1716 13.13471270192806
ONEWEB-0338             
1 49204U 21083U   25243.19604532  .00000135  00000+0  29992-3 0  9991
2 49204  87.9298 332.2661 0001646  93.2818 266.8503 13.20773641198535
ONEWEB-0339             
1 49205U 21083V   25243.11683444  .00001674  00000+0  45477-2 0  9997
2 49205  87.9012  17.8583 0001649 102.1716 257.9598 13.13463509192810
ONEWEB-0340             
1 49206U 21083W   25243.13413596  .00000074  00000+0  15446-3 0  9996
2 49206  87.9164  33.0495 0001825  95.9313 264.2028 13.18686996191741
ONEWEB-0341             
1 49207U 21083X   25242.98898238  .00000075  00000+0  15818-3 0  9993
2 49207  87.9168  33.0906 0001630 113.6545 246.4759 13.18685730191740
ONEWEB-0342             
1 49208U 21083Y   25243.20234826  .00000126  00000+0  27682-3 0  9996
2 49208  87.9285 332.2357 0001790  97.1565 262.9772 13.20770140198502
ONEWEB-0343             
1 49209U 21083Z   25243.13661609  .00000026  00000+0  32759-4 0  9993
2 49209  87.9165  33.0471 0001298 108.9067 251.2206 13.18685577191810
ONEWEB-0344             
1 49210U 21083AA  25243.11174499 -.00000077  00000+0 -24657-3 0  9994
2 49210  87.9005  17.8992 0001739 112.1304 248.0010 13.13470025192817
ONEWEB-0345             
1 49211U 21083AB  25243.10327104  .00001534  00000+0  41641-2 0  9995
2 49211  87.8974  17.8536 0002140 104.8907 255.2460 13.13494161192827
ONEWEB-0346             
1 49212U 21083AC  25242.91806232  .00000003  00000+0 -25163-4 0  9992
2 49212  87.9168  33.1132 0002385  96.0527 264.0877 13.18684924191729
ONEWEB-0348             
1 49213U 21083AD  25243.19288789  .00000095  00000+0  20153-3 0  9998
2 49213  87.9284 332.2494 0002325 112.0211 248.1170 13.20770514198535
ONEWEB-0350             
1 49214U 21083AE  25243.11259445 -.00000015  00000+0 -76038-4 0  9996
2 49214  87.9017  17.8437 0001767 108.8383 251.2938 13.13470946192859
ONEWEB-0351             
1 49215U 21083AF  25243.18643700  .00000094  00000+0  19905-3 0  9999
2 49215  87.9299 332.2360 0000992  98.3616 261.7630 13.20771539198493
